OBJECT_NAME,OBJECT_ID,EPOCH,MEAN_MOTION,ECCENTRICITY,INCLINATION,RA_OF_ASC_NODE,ARG_OF_PERICENTER,MEAN_ANOMALY,EPHEMERIS_TYPE,CLASSIFICATION_TYPE,NORAD_CAT_ID,ELEMENT_SET_NO,REV_AT_EPOCH,BSTAR,MEAN_MOTION_DOT,MEAN_MOTION_DDOT
STARLINK-37376,2026-123AB,2026-06-16T06:00:02.000160,15.80897102,.00007585,53.1582,245.8649,47.0561,49.2734,0,U,69378,999,314,.25170719E-3,.49319E-3,0
STARLINK-37383,2026-123AC,2026-06-16T06:00:02.000160,15.80855874,.0001423,53.1577,245.7919,86.9750,44.0745,0,U,69379,999,314,.23360617E-3,.45615E-3,0
STARLINK-37411,2026-123AD,2026-06-16T06:00:02.000160,15.80923088,.00008738,53.1579,245.8503,88.1124,15.0742,0,U,69380,999,314,-.3461543E-3,-.68634E-3,0
STARLINK-37427,2026-123AE,2026-06-16T06:00:02.000160,15.80889479,.00010619,53.1576,245.8016,96.8546,29.7230,0,U,69381,999,305,-.13388311E-3,-.2706E-3,0
QIANFAN-165,2026-124A,2026-06-16T01:20:06.786240,14.13769567,.00017721,88.9976,2.1675,169.7746,190.3477,0,U,69382,999,165,-.1208859E+1,-.2109876E-1,0
QIANFAN-166,2026-124B,2026-06-15T23:33:17.629056,14.14903562,.00038011,88.9976,2.1775,207.7737,152.3248,0,U,69383,999,164,-.11770023E+1,-.2098646E-1,0
QIANFAN-167,2026-124C,2026-06-15T13:23:59.310240,14.14488199,.00049829,88.9981,2.2257,164.0190,196.1155,0,U,69384,999,158,-.11683555E+1,-.2069702E-1,0
QIANFAN-168,2026-124D,2026-06-15T21:47:02.744160,14.15868227,.00068375,88.9980,2.1835,191.6708,168.4322,0,U,69385,999,163,-.11293932E+1,-.20538E-1,0
QIANFAN-169,2026-124E,2026-06-15T13:16:16.433472,14.16502879,.00068162,88.9976,2.2227,203.5127,156.5751,0,U,69386,999,158,-.10519428E+1,-.1943706E-1,0
QIANFAN-170,2026-124F,2026-06-16T06:09:44.333568,14.20039676,.0002493,88.9982,2.1437,117.6653,242.4790,0,U,69387,999,168,.27688368E-4,.73E-6,0
QIANFAN-171,2026-124G,2026-06-16T01:02:08.478816,14.18861707,.00063752,88.9966,2.1655,199.8711,160.2231,0,U,69388,999,165,-.10881796E+1,-.2089238E-1,0
QIANFAN-172,2026-124H,2026-06-16T02:45:03.818592,14.21599532,.0001843,88.9982,2.1583,154.5437,205.5845,0,U,69389,999,166,.2812815E-4,.76E-6,0
QIANFAN-173,2026-124J,2026-06-16T06:05:02.532192,14.22005855,.00023475,88.9980,2.1431,149.1374,210.9956,0,U,69390,999,168,.28086484E-4,.77E-6,0
QIANFAN-174,2026-124K,2026-06-15T21:34:15.545856,14.19450718,.00067587,88.9971,2.1820,176.7023,183.4213,0,U,69391,999,163,-.10344745E+1,-.2013987E-1,0
QIANFAN-175,2026-124L,2026-06-16T00:57:19.453536,14.19503775,.00050088,88.9968,2.1659,194.8620,165.2424,0,U,69392,999,165,-.10614083E+1,-.206427E-1,0
QIANFAN-176,2026-124M,2026-06-15T13:07:40.399968,14.21621112,.00027159,88.9975,2.2218,318.0752,42.0231,0,U,69393,999,158,-.10494153E+1,-.2119033E-1,0
QIANFAN-177,2026-124N,2026-06-15T09:44:04.866432,14.25688492,.00030317,88.9981,2.2376,158.8133,201.3186,0,U,69394,999,156,.10253172E-4,.39E-6,0
QIANFAN-178,2026-124P,2026-06-16T00:55:19.672896,14.21206064,.00046551,88.9982,2.1647,134.9628,225.1940,0,U,69395,999,165,-.1060211E+1,-.2123926E-1,0
QIANFAN-179,2026-124Q,2026-06-16T02:34:08.484096,14.25729216,.00027961,88.9985,2.1568,164.7985,195.3293,0,U,69396,999,166,.30048488E-4,.86E-6,0
QIANFAN-180,2026-124R,2026-06-16T00:51:02.108448,14.20905502,.00019411,88.9975,2.1650,142.0176,218.1152,0,U,69397,999,165,-.92529732E+0,-.1861776E-1,0
QIANFAN-181,2026-124S,2026-06-16T01:17:03.255360,14.13695464,.00040015,88.9984,2.1680,157.4366,202.6997,0,U,69398,999,165,-.11375532E+1,-.1991703E-1,0
QIANFAN-182,2026-124T,2026-06-15T21:43:14.206656,14.16797096,.0007477,88.9977,2.1837,198.2087,161.8835,0,U,69399,999,163,-.10948519E+1,-.2027679E-1,0
DTC TEST OBJECT A,2026-128A,2026-06-15T21:11:52.080288,15.55780003,.0008379,54.9944,311.0525,284.2235,75.7870,0,U,69472,999,102,.33927E-3,.23412E-3,0
DTC TEST OBJECT B,2026-128B,2026-06-15T21:10:01.727616,15.56219840,.0008448,55.0033,311.0492,285.2598,74.7504,0,U,69473,999,101,.4055E-3,.28562E-3,0
TJS-25,2026-129A,2026-06-11T11:34:53.014656,1.72502163,.7751889,16.5302,30.5351,199.9639,91.9387,0,U,69474,999,7,.19774E-2,.7407E-4,0
2026-132A,2026-132A,2026-06-16T03:41:33.721728,14.99043892,.0012399,97.6911,230.8432,274.8337,85.1470,0,U,69502,999,62,.49195812E-4,.538E-5,0
2026-132B,2026-132B,2026-06-16T03:41:12.175296,14.99134290,.00123109,97.6942,230.8452,277.0948,82.8875,0,U,69503,999,62,.29199313E-4,.296E-5,0
BRO-22,2026-132C,2026-06-16T03:38:45.122496,14.99757954,.00138076,97.6882,230.8421,288.8226,71.1499,0,U,69504,999,62,.75318939E-4,.872E-5,0
2026-132D,2026-132D,2026-06-16T03:33:11.183904,15.01725287,.00117095,97.6817,230.8394,297.0190,62.9838,0,U,69505,999,62,.11328567E-3,.1415E-4,0
